NORAD_CAT_ID,OBJECT_NAME,OBJECT_TYPE,EPOCH,MEAN_MOTION,ECCENTRICITY,INCLINATION,RA_OF_ASC_NODE,ARG_OF_PERICENTER,MEAN_ANOMALY,BSTAR,MEAN_MOTION_DOT,MEAN_MOTION_DDOT,TLE_LINE0,TLE_LINE1,TLE_LINE2,SEMIMAJOR_AXIS,PERIOD,APOGEE,PERIGEE,DECAYED
53564.0,STARLINK-4577,PAYLOAD,2023-09-12 17:44:48,15.08834146,0.0001508,53.2165,174.6195,93.5641,266.5524,4.2501e-05,3.88e-06,0.0,0 STARLINK-4577,1 53564U 22101AP  23255.73945518  .00000388  00000-0  42501-4 0  9993,2 53564  53.2165 174.6195 0001508  93.5641 266.5524 15.08834146 59220,6917.898,95.438,540.807,538.72,0.0
53564.0,STARLINK-4577,PAYLOAD,2023-09-13 01:41:44,15.08843936,0.000115,53.2165,173.1355,79.5852,280.527,4.2637e-05,3.91e-06,0.0,0 STARLINK-4577,1 53564U 22101AP  23256.07065008  .00000391  00000-0  42637-4 0  9992,2 53564  53.2165 173.1355 0001150  79.5852 280.5270 15.08843936 59279,6917.868,95.437,540.529,538.938,0.0
53564.0,STARLINK-4577,PAYLOAD,2023-09-13 19:10:58,15.08845778,0.0001242,53.2161,169.864,88.4199,271.6936,-2.4862e-05,-6.84e-06,0.0,0 STARLINK-4577,1 53564U 22101AP  23256.79929005 -.00000684  00000-0 -24862-4 0  9994,2 53564  53.2161 169.8640 0001242  88.4199 271.6936 15.08845778 59387,6917.863,95.437,540.587,538.869,0.0
53564.0,STARLINK-4577,PAYLOAD,2023-09-14 04:43:16,15.08857282,0.0001197,53.2168,168.0788,88.3571,271.7558,6.829e-05,8e-06,0.0,0 STARLINK-4577,1 53564U 22101AP  23257.19671763  .00000800  00000-0  68290-4 0  9995,2 53564  53.2168 168.0788 0001197  88.3571 271.7558 15.08857282 59441,6917.828,95.436,540.521,538.865,0.0
53564.0,STARLINK-4577,PAYLOAD,2023-09-15 01:23:19,15.08830247,0.0001494,53.2182,164.2128,76.58,283.5359,-4.187e-05,-9.54e-06,0.0,0 STARLINK-4577,1 53564U 22101AP  23258.05786306 -.00000954  00000-0 -41870-4 0  9998,2 53564  53.2182 164.2128 0001494  76.5800 283.5359 15.08830247 59573,6917.91,95.438,540.809,538.742,0.0
53564.0,STARLINK-4577,PAYLOAD,2023-09-15 02:58:42,15.08835524,0.0001392,53.2174,163.9133,96.6832,263.4318,-2.4512e-05,-6.78e-06,0.0,0 STARLINK-4577,1 53564U 22101AP  23258.12409821 -.00000678  00000-0 -24512-4 0  9997,2 53564  53.2174 163.9133 0001392  96.6832 263.4318 15.08835524 59587,6917.894,95.438,540.722,538.796,0.0
53564.0,STARLINK-4577,PAYLOAD,2023-09-16 02:49:28,15.08850596,0.0001329,53.2174,159.455,89.1651,270.9493,4.6457e-05,4.52e-06,0.0,0 STARLINK-4577,1 53564U 22101AP  23259.11768829  .00000452  00000-0  46457-4 0  9993,2 53564  53.2174 159.4550 0001329  89.1651 270.9493 15.08850596 59736,6917.848,95.437,540.632,538.794,0.0
53564.0,STARLINK-4577,PAYLOAD,2023-09-16 17:07:57,15.08832127,0.0001463,53.217,156.7772,92.7633,267.3526,0.00012385,1.683e-05,0.0,0 STARLINK-4577,1 53564U 22101AP  23259.71385895  .00001683  00000-0  12385-3 0  9996,2 53564  53.2170 156.7772 0001463  92.7633 267.3526 15.08832127 59824,6917.904,95.438,540.782,538.757,0.0
53564.0,STARLINK-4577,PAYLOAD,2023-09-17 02:40:15,15.08842609,0.0001303,53.2165,154.9944,102.8747,257.2391,0.00010614,1.402e-05,0.0,0 STARLINK-4577,1 53564U 22101AP  23260.11129329  .00001402  00000-0  10614-3 0  9992,2 53564  53.2165 154.9944 0001303 102.8747 257.2391 15.08842609 59881,6917.872,95.437,540.639,538.836,0.0
53564.0,STARLINK-4577,PAYLOAD,2023-09-18 02:31:02,15.08856376,0.0001388,53.2168,150.5337,108.1565,251.9578,2.7402e-05,1.48e-06,0.0,0 STARLINK-4577,1 53564U 22101AP  23261.10488472  .00000148  00000-0  27402-4 0  9999,2 53564  53.2168 150.5337 0001388 108.1565 251.9578 15.08856376 60035,6917.83,95.437,540.656,538.735,0.0
53564.0,STARLINK-4577,PAYLOAD,2023-09-18 20:00:17,15.08840665,0.0001415,53.2173,147.2626,99.0268,261.0885,-8.6704e-06,-4.26e-06,0.0,0 STARLINK-4577,1 53564U 22101AP  23261.83353586 -.00000426  00000-0 -86704-5 0  9998,2 53564  53.2173 147.2626 0001415  99.0268 261.0885 15.08840665 60143,6917.878,95.438,540.722,538.764,0.0
53564.0,STARLINK-4577,PAYLOAD,2023-09-19 00:46:26,15.08846794,0.0001408,53.218,146.3713,90.2102,269.9052,5.5448e-05,5.95e-06,0.0,0 STARLINK-4577,1 53564U 22101AP  23262.03225078  .00000595  00000-0  55448-4 0  9990,2 53564  53.2180 146.3713 0001408  90.2102 269.9052 15.08846794 60175,6917.86,95.437,540.699,538.751,0.0
53564.0,STARLINK-4577,PAYLOAD,2023-09-20 00:37:12,15.08859299,0.0001367,53.2186,141.9124,85.9001,274.2147,0.00013193,1.813e-05,0.0,0 STARLINK-4577,1 53564U 22101AP  23263.02583683  .00001813  00000-0  13193-3 0  9993,2 53564  53.2186 141.9124 0001367  85.9001 274.2147 15.08859299 60326,6917.821,95.436,540.632,538.741,0.0
53564.0,STARLINK-4577,PAYLOAD,2023-09-20 21:17:15,15.08819184,0.0001452,53.217,138.0483,96.3779,263.7378,-0.00028907,-4.883e-05,0.0,0 STARLINK-4577,1 53564U 22101AP  23263.88698677 -.00004883  00000-0 -28907-3 0  9998,2 53564  53.2170 138.0483 0001452  96.3779 263.7378 15.08819184 60459,6917.944,95.439,540.814,538.805,0.0
53564.0,STARLINK-4577,PAYLOAD,2023-09-21 02:03:25,15.08818474,0.0001401,53.2169,137.1541,88.2128,271.9025,-0.00026767,-4.543e-05,0.0,0 STARLINK-4577,1 53564U 22101AP  23264.08570947 -.00004543  00000-0 -26767-3 0  9995,2 53564  53.2169 137.1541 0001401  88.2128 271.9025 15.08818474 60488,6917.946,95.439,540.78,538.842,0.0
53564.0,STARLINK-4577,PAYLOAD,2023-09-21 21:08:02,15.08834309,0.0001474,53.2172,133.5864,102.7614,257.3543,-4.0246e-05,-9.28e-06,0.0,0 STARLINK-4577,1 53564U 22101AP  23264.88058862 -.00000928  00000-0 -40246-4 0  9992,2 53564  53.2172 133.5864 0001474 102.7614 257.3543 15.08834309 60604,6917.898,95.438,540.782,538.743,0.0
53564.0,STARLINK-4577,PAYLOAD,2023-09-22 00:18:48,15.088368,0.0001502,53.2163,132.9894,94.4994,265.617,-1.2127e-05,-4.81e-06,0.0,0 STARLINK-4577,1 53564U 22101AP  23265.01306518 -.00000481  00000-0 -12127-4 0  9993,2 53564  53.2163 132.9894 0001502  94.4994 265.6170 15.08836800 60628,6917.89,95.438,540.794,538.716,0.0
53564.0,STARLINK-4577,PAYLOAD,2023-09-22 20:58:49,15.08849171,0.0001405,53.2155,129.1259,106.8383,253.2763,0.00045208,6.916e-05,0.0,0 STARLINK-4577,1 53564U 22101AP  23265.87418566  .00006916  00000-0  45208-3 0  9996,2 53564  53.2155 129.1259 0001405 106.8383 253.2763 15.08849171 60754,6917.852,95.437,540.689,538.745,0.0
53564.0,STARLINK-4577,PAYLOAD,2023-09-23 00:09:35,15.08860342,0.0001424,53.2156,128.5308,106.3141,253.8008,0.00064488,9.996e-05,0.0,0 STARLINK-4577,1 53564U 22101AP  23266.00666329  .00009996  00000-0  64488-3 0  9996,2 53564  53.2156 128.5308 0001424 106.3141 253.8008 15.08860342 60774,6917.818,95.436,540.668,538.698,0.0
53564.0,STARLINK-4577,PAYLOAD,2023-09-23 19:14:13,15.08848254,0.0001456,53.2151,124.9605,119.9127,240.201,0.00010985,1.461e-05,0.0,0 STARLINK-4577,1 53564U 22101AP  23266.80154365  .00001461  00000-0  10985-3 0  9998,2 53564  53.2151 124.9605 0001456 119.9127 240.2010 15.08848254 60892,6917.855,95.437,540.727,538.713,0.0
53564.0,STARLINK-4577,PAYLOAD,2023-09-24 00:00:22,15.08849317,0.0001298,53.2158,124.0691,98.0883,262.0256,0.00024388,3.597e-05,0.0,0 STARLINK-4577,1 53564U 22101AP  23267.00026391  .00003597  00000-0  24388-3 0  9992,2 53564  53.2158 124.0691 0001298  98.0883 262.0256 15.08849317 60924,6917.852,95.437,540.615,538.819,0.0
53564.0,STARLINK-4577,PAYLOAD,2023-09-24 17:29:37,15.0883932,0.000129,53.2158,120.7976,98.1924,261.9215,0.00020832,3.029e-05,0.0,0 STARLINK-4577,1 53564U 22101AP  23267.72890769  .00003029  00000-0  20832-3 0  9999,2 53564  53.2158 120.7976 0001290  98.1924 261.9215 15.08839320 61031,6917.882,95.438,540.64,538.855,0.0
53564.0,STARLINK-4577,PAYLOAD,2023-09-24 20:40:23,15.08845134,0.0001296,53.2159,120.2031,96.577,263.5369,0.00023179,3.403e-05,0.0,0 STARLINK-4577,1 53564U 22101AP  23267.86138608  .00003403  00000-0  23179-3 0  9994,2 53564  53.2159 120.2031 0001296  96.5770 263.5369 15.08845134 61056,6917.865,95.437,540.626,538.833,0.0
53564.0,STARLINK-4577,PAYLOAD,2023-09-25 07:48:05,15.0885304,0.0001281,53.2157,118.1217,94.9804,265.1335,0.00048779,7.487e-05,0.0,0 STARLINK-4577,1 53564U 22101AP  23268.32506446  .00007487  00000-0  48779-3 0  9994,2 53564  53.2157 118.1217 0001281  94.9804 265.1335 15.08853040 61124,6917.841,95.437,540.592,538.819,0.0
53564.0,STARLINK-4577,PAYLOAD,2023-09-25 18:55:47,15.08854804,0.000136,53.2155,116.0388,112.6159,247.4977,0.00038361,5.825e-05,0.0,0 STARLINK-4577,1 53564U 22101AP  23268.78874081  .00005825  00000-0  38361-3 0  9997,2 53564  53.2155 116.0388 0001360 112.6159 247.4977 15.08854804 61198,6917.835,95.437,540.641,538.759,0.0
53564.0,STARLINK-4577,PAYLOAD,2023-09-25 20:31:10,15.08857758,0.0001296,53.2158,115.7423,104.4241,255.6895,0.00043658,6.67e-05,0.0,0 STARLINK-4577,1 53564U 22101AP  23268.85497976  .00006670  00000-0  43658-3 0  9993,2 53564  53.2158 115.7423 0001296 104.4241 255.6895 15.08857758 61209,6917.826,95.436,540.588,538.795,0.0
53564.0,STARLINK-4577,PAYLOAD,2023-09-25 23:41:56,15.08860362,0.000132,53.2158,115.147,105.8525,254.2613,0.00050299,7.731e-05,0.0,0 STARLINK-4577,1 53564U 22101AP  23268.98745824  .00007731  00000-0  50299-3 0  9993,2 53564  53.2158 115.1470 0001320 105.8525 254.2613 15.08860362 61223,6917.818,95.436,540.596,538.77,0.0
53564.0,STARLINK-4577,PAYLOAD,2023-09-26 17:11:11,15.08840007,0.0002345,53.2159,111.868,139.7822,220.3344,0.00011478,1.539e-05,0.0,0 STARLINK-4577,1 53564U 22101AP  23269.71610288  .00001539  00000-0  11478-3 0  9996,2 53564  53.2159 111.8680 0002345 139.7822 220.3344 15.08840007 61335,6917.88,95.438,541.368,538.123,0.0
53564.0,STARLINK-4577,PAYLOAD,2023-09-26 20:21:57,15.08838405,0.0001441,53.2156,111.2812,99.3189,260.7966,4.1318e-05,3.7e-06,0.0,0 STARLINK-4577,1 53564U 22101AP  23269.84858721  .00000370  00000-0  41318-4 0  9995,2 53564  53.2156 111.2812 0001441  99.3189 260.7966 15.08838405 61355,6917.885,95.438,540.747,538.753,0.0
53564.0,STARLINK-4577,PAYLOAD,2023-09-27 18:37:22,15.08842483,0.000147,53.2157,107.1183,92.6034,267.5126,0.00027072,4.023e-05,0.0,0 STARLINK-4577,1 53564U 22101AP  23270.77594953  .00004023  00000-0  27072-3 0  9992,2 53564  53.2157 107.1183 0001470  92.6034 267.5126 15.08842483 61497,6917.873,95.437,540.755,538.721,0.0
